[{"OBJECT_NAME":"FENGYUN 3A","OBJECT_ID":"2008-026A","EPOCH":"2026-03-09T17:38:43.829664","MEAN_MOTION":14.1954647,"ECCENTRICITY":0.0009678,"INCLINATION":98.6797,"RA_OF_ASC_NODE":11.4771,"ARG_OF_PERICENTER":58.1455,"MEAN_ANOMALY":302.0662,"EPHEMERIS_TYPE":0,"CLASSIFICATION_TYPE":"U","NORAD_CAT_ID":32958,"ELEMENT_SET_NO":999,"REV_AT_EPOCH":92129,"BSTAR":9.6161117e-5,"MEAN_MOTION_DOT":1.6e-6,"MEAN_MOTION_DDOT":0},{"OBJECT_NAME":"COSMOS 2251 DEB","OBJECT_ID":"1993-036EN","EPOCH":"2026-03-09T14:05:39.523200","MEAN_MOTION":14.33711441,"ECCENTRICITY":0.0072347,"INCLINATION":74.0862,"RA_OF_ASC_NODE":261.8155,"ARG_OF_PERICENTER":248.7619,"MEAN_ANOMALY":110.5795,"EPHEMERIS_TYPE":0,"CLASSIFICATION_TYPE":"U","NORAD_CAT_ID":33933,"ELEMENT_SET_NO":999,"REV_AT_EPOCH":89029,"BSTAR":0.00033788,"MEAN_MOTION_DOT":9.4e-6,"MEAN_MOTION_DDOT":0}]
